NORAD_CAT_ID,OBJECT_NAME,OBJECT_TYPE,EPOCH,MEAN_MOTION,ECCENTRICITY,INCLINATION,RA_OF_ASC_NODE,ARG_OF_PERICENTER,MEAN_ANOMALY,BSTAR,MEAN_MOTION_DOT,MEAN_MOTION_DDOT,TLE_LINE0,TLE_LINE1,TLE_LINE2,SEMIMAJOR_AXIS,PERIOD,APOGEE,PERIGEE,DECAYED
54183.0,STARLINK-5239,PAYLOAD,2024-07-17 08:38:38,15.08835234,0.0001512,53.2168,178.7241,94.435,265.6815,-8.9013e-06,-4.3e-06,0.0,0 STARLINK-5239,1 54183U 22141AC  24199.36017191 -.00000430  00000-0 -89013-5 0  9999,2 54183  53.2168 178.7241 0001512  94.4350 265.6815 15.08835234 95233,6917.895,95.438,540.806,538.714,0.0
54183.0,STARLINK-5239,PAYLOAD,2024-07-18 05:18:39,15.0884195,0.0001456,53.2167,174.8588,93.8524,266.2635,7.2218e-05,8.62e-06,0.0,0 STARLINK-5239,1 54183U 22141AC  24200.22128860  .00000862  00000-0  72218-4 0  9998,2 54183  53.2167 174.8588 0001456  93.8524 266.2635 15.08841950 95594,6917.874,95.437,540.747,538.732,0.0
54183.0,STARLINK-5239,PAYLOAD,2024-07-18 14:50:58,15.08843152,0.0001441,53.2163,173.0751,91.9713,268.1444,5.8031e-05,6.36e-06,0.0,0 STARLINK-5239,1 54183U 22141AC  24200.61872857  .00000636  00000-0  58031-4 0  9999,2 54183  53.2163 173.0751 0001441  91.9713 268.1444 15.08843152 95423,6917.871,95.437,540.733,538.739,0.0
54183.0,STARLINK-5239,PAYLOAD,2024-07-19 03:34:04,15.08833065,0.0001505,53.2168,170.6969,91.1423,268.9741,6.3558e-05,7.24e-06,0.0,0 STARLINK-5239,1 54183U 22141AC  24201.14865781  .00000724  00000-0  63558-4 0  9994,2 54183  53.2168 170.6969 0001505  91.1423 268.9741 15.08833065 95737,6917.902,95.438,540.808,538.725,0.0
54183.0,STARLINK-5239,PAYLOAD,2024-07-19 06:44:49,15.08838688,0.0001519,53.2174,170.106,96.2035,263.913,9.7528e-05,1.264e-05,0.0,0 STARLINK-5239,1 54183U 22141AC  24201.28113402  .00001264  00000-0  97528-4 0  9999,2 54183  53.2174 170.1060 0001519  96.2035 263.9130 15.08838688 95521,6917.884,95.438,540.8,538.699,0.0
54183.0,STARLINK-5239,PAYLOAD,2024-07-19 14:41:46,15.0883123,0.0001541,53.2181,168.6183,94.8973,265.2195,5.8425e-05,6.42e-06,0.0,0 STARLINK-5239,1 54183U 22141AC  24201.61234040  .00000642  00000-0  58425-4 0  9990,2 54183  53.2181 168.6183 0001541  94.8973 265.2195 15.08831230 95574,6917.907,95.438,540.838,538.706,0.0
54183.0,STARLINK-5239,PAYLOAD,2024-07-20 05:00:13,15.08843311,0.0001477,53.2168,165.9425,104.2704,255.8452,5.1924e-05,5.39e-06,0.0,0 STARLINK-5239,1 54183U 22141AC  24202.20849343  .00000539  00000-0  51924-4 0  9996,2 54183  53.2168 165.9425 0001477 104.2704 255.8452 15.08843311 95893,6917.87,95.437,540.757,538.713,0.0
54183.0,STARLINK-5239,PAYLOAD,2024-07-20 14:32:32,15.08841729,0.0001433,53.2164,164.156,90.6897,269.426,4.7992e-05,4.76e-06,0.0,0 STARLINK-5239,1 54183U 22141AC  24202.60593423  .00000476  00000-0  47992-4 0  9995,2 54183  53.2164 164.1560 0001433  90.6897 269.4260 15.08841729 95724,6917.875,95.437,540.731,538.749,0.0
54183.0,STARLINK-5239,PAYLOAD,2024-07-21 03:15:38,15.08833421,0.0001723,53.2181,161.7762,80.9756,279.1431,3.3877e-08,-2.88e-06,0.0,0 STARLINK-5239,1 54183U 22141AC  24203.13586391 -.00000288  00000-0  33877-7 0  9992,2 54183  53.2181 161.7762 0001723  80.9756 279.1431 15.08833421 96031,6917.9,95.438,540.957,538.574,0.0
54183.0,STARLINK-5239,PAYLOAD,2024-07-21 06:26:24,15.08838851,0.0001791,53.2188,161.1797,77.0315,283.0877,3.7743e-05,3.13e-06,0.0,0 STARLINK-5239,1 54183U 22141AC  24203.26833919  .00000313  00000-0  37743-4 0  9998,2 54183  53.2188 161.1797 0001791  77.0315 283.0877 15.08838851 95829,6917.884,95.438,540.988,538.51,0.0
54183.0,STARLINK-5239,PAYLOAD,2024-07-22 04:41:48,15.08844334,0.0001554,53.217,157.0185,79.1587,280.958,1.5102e-05,-4.8e-07,0.0,0 STARLINK-5239,1 54183U 22141AC  24204.19569933 -.00000048  00000-0  15102-4 0  9994,2 54183  53.2170 157.0185 0001554  79.1587 280.9580 15.08844334 95961,6917.867,95.437,540.807,538.657,0.0
54183.0,STARLINK-5239,PAYLOAD,2024-07-23 02:57:11,15.08852921,0.0001777,53.2176,152.8549,64.1017,296.0159,0.00013217,1.817e-05,0.0,0 STARLINK-5239,1 54183U 22141AC  24205.12305107  .00001817  00000-0  13217-3 0  9997,2 54183  53.2176 152.8549 0001777  64.1017 296.0159 15.08852921 96336,6917.841,95.437,540.935,538.477,0.0
54183.0,STARLINK-5239,PAYLOAD,2024-07-23 20:26:29,15.0881267,0.0001353,53.2165,149.5842,91.5607,268.554,-0.00024235,-4.14e-05,0.0,0 STARLINK-5239,1 54183U 22141AC  24205.85173570 -.00004140  00000-0 -24235-3 0  9990,2 54183  53.2165 149.5842 0001353  91.5607 268.5540 15.08812670 96449,6917.964,95.439,540.765,538.893,0.0
54183.0,STARLINK-5239,PAYLOAD,2024-07-24 02:48:00,15.08836591,0.0001579,53.2174,148.3878,91.5463,268.571,-2.0164e-06,-3.2e-06,0.0,0 STARLINK-5239,1 54183U 22141AC  24206.11667823 -.00000320  00000-0 -20164-5 0  9994,2 54183  53.2174 148.3878 0001579  91.5463 268.5710 15.08836591 96486,6917.891,95.438,540.848,538.663,0.0
54183.0,STARLINK-5239,PAYLOAD,2024-07-24 05:58:47,15.08836058,0.0001595,53.2176,147.7934,91.7097,268.4078,-4.84e-06,-3.65e-06,0.0,0 STARLINK-5239,1 54183U 22141AC  24206.24915905 -.00000365  00000-0 -48400-5 0  9997,2 54183  53.2176 147.7934 0001595  91.7097 268.4078 15.08836058 96278,6917.892,95.438,540.861,538.654,0.0
54183.0,STARLINK-5239,PAYLOAD,2024-07-25 04:14:08,15.08866874,0.0001728,53.2172,143.632,76.1062,284.0122,0.0001751,2.502e-05,0.0,0 STARLINK-5239,1 54183U 22141AC  24207.17648686  .00002502  00000-0  17510-3 0  9998,2 54183  53.2172 143.6320 0001728  76.1062 284.0122 15.08866874 96649,6917.798,95.436,540.859,538.468,0.0
54183.0,STARLINK-5239,PAYLOAD,2024-07-25 05:49:31,15.08873973,0.0001473,53.2165,143.3388,75.2323,284.8832,0.00024074,3.549e-05,0.0,0 STARLINK-5239,1 54183U 22141AC  24207.24271998  .00003549  00000-0  24074-3 0  9999,2 54183  53.2165 143.3388 0001473  75.2323 284.8832 15.08873973 96654,6917.777,95.435,540.661,538.623,0.0
54183.0,STARLINK-5239,PAYLOAD,2024-07-26 02:29:34,15.08837809,0.0001521,53.2171,139.4749,67.4893,292.626,0.0001534,2.154e-05,0.0,0 STARLINK-5239,1 54183U 22141AC  24208.10387186  .00002154  00000-0  15340-3 0  9999,2 54183  53.2171 139.4749 0001521  67.4893 292.6260 15.08837809 96781,6917.887,95.438,540.804,538.7,0.0
54183.0,STARLINK-5239,PAYLOAD,2024-07-26 18:23:24,15.08853504,0.0001369,53.2167,136.5009,76.1865,283.9279,-2.4649e-05,-6.8e-06,0.0,0 STARLINK-5239,1 54183U 22141AC  24208.76626157 -.00000680  00000-0 -24649-4 0  9992,2 54183  53.2167 136.5009 0001369  76.1865 283.9279 15.08853504 96883,6917.839,95.437,540.651,538.757,0.0
54183.0,STARLINK-5239,PAYLOAD,2024-07-27 02:20:19,15.08866434,0.0001153,53.216,135.0154,86.5783,273.5341,-6.876e-05,-1.383e-05,0.0,0 STARLINK-5239,1 54183U 22141AC  24209.09744996 -.00001383  00000-0 -68760-4 0  9994,2 54183  53.2160 135.0154 0001153  86.5783 273.5341 15.08866434 96933,6917.8,95.436,540.462,538.867,0.0
54183.0,STARLINK-5239,PAYLOAD,2024-07-28 02:11:08,15.08832466,0.0001333,53.2169,130.5537,75.8569,284.2571,-8.3248e-06,-4.2e-06,0.0,0 STARLINK-5239,1 54183U 22141AC  24210.09107181 -.00000420  00000-0 -83248-5 0  9995,2 54183  53.2169 130.5537 0001333  75.8569 284.2571 15.08832466 97089,6917.903,95.438,540.691,538.846,0.0
54183.0,STARLINK-5239,PAYLOAD,2024-07-28 18:04:59,15.0884458,0.0001649,53.2168,127.5829,95.6926,264.4254,-8.4765e-05,-1.637e-05,0.0,0 STARLINK-5239,1 54183U 22141AC  24210.75346809 -.00001637  00000-0 -84765-4 0  9995,2 54183  53.2168 127.5829 0001649  95.6926 264.4254 15.08844580 97184,6917.866,95.437,540.872,538.591,0.0
54183.0,STARLINK-5239,PAYLOAD,2024-07-28 22:51:08,15.08866269,0.0002381,53.2162,126.6913,88.8241,271.3024,-0.0004891,-8.07e-05,0.0,0 STARLINK-5239,1 54183U 22141AC  24210.95218158 -.00008070  00000-0 -48910-3 0  9991,2 54183  53.2162 126.6913 0002381  88.8241 271.3024 15.08866269 96987,6917.8,95.436,541.312,538.018,0.0
54183.0,STARLINK-5239,PAYLOAD,2024-07-29 11:34:13,15.08850838,0.0001328,53.2173,124.3096,92.3096,267.8049,-2.1936e-05,-6.37e-06,0.0,0 STARLINK-5239,1 54183U 22141AC  24211.48210224 -.00000637  00000-0 -21936-4 0  9997,2 54183  53.2173 124.3096 0001328  92.3096 267.8049 15.08850838 97066,6917.847,95.437,540.631,538.794,0.0
54183.0,STARLINK-5239,PAYLOAD,2024-07-29 22:41:55,15.08844114,0.0001362,53.2171,122.2284,97.2116,262.9031,0.00021985,3.213e-05,0.0,0 STARLINK-5239,1 54183U 22141AC  24211.94578558  .00003213  00000-0  21985-3 0  9999,2 54183  53.2171 122.2284 0001362  97.2116 262.9031 15.08844114 97130,6917.868,95.437,540.675,538.791,0.0
54183.0,STARLINK-5239,PAYLOAD,2024-07-30 01:52:42,15.08849791,0.0001236,53.2153,121.6331,99.1913,260.9219,0.0003343,5.038e-05,0.0,0 STARLINK-5239,1 54183U 22141AC  24212.07826434  .00005038  00000-0  33430-3 0  9998,2 54183  53.2153 121.6331 0001236  99.1913 260.9219 15.08849791 97381,6917.85,95.437,540.571,538.86,0.0
54183.0,STARLINK-5239,PAYLOAD,2024-07-30 11:25:01,15.0884309,0.000139,53.2147,119.8486,97.3809,262.7341,0.00019374,2.797e-05,0.0,0 STARLINK-5239,1 54183U 22141AC  24212.47570855  .00002797  00000-0  19374-3 0  9995,2 54183  53.2147 119.8486 0001390  97.3809 262.7341 15.08843090 97448,6917.871,95.437,540.698,538.774,0.0
54183.0,STARLINK-5239,PAYLOAD,2024-07-30 22:32:43,15.08846132,0.0001542,53.2153,117.7677,88.5438,271.5731,0.0002129,3.102e-05,0.0,0 STARLINK-5239,1 54183U 22141AC  24212.93938731  .00003102  00000-0  21290-3 0  9998,2 54183  53.2153 117.7677 0001542  88.5438 271.5731 15.08846132 97286,6917.862,95.437,540.793,538.66,0.0
54183.0,STARLINK-5239,PAYLOAD,2024-07-31 11:15:47,15.08846259,0.0001378,53.2154,115.3889,87.4192,272.6958,0.0001185,1.599e-05,0.0,0 STARLINK-5239,1 54183U 22141AC  24213.46930522  .00001599  00000-0  11850-3 0  9996,2 54183  53.2154 115.3889 0001378  87.4192 272.6958 15.08846259 97360,6917.861,95.437,540.68,538.773,0.0
54183.0,STARLINK-5239,PAYLOAD,2024-07-31 20:48:07,15.08837957,0.0001493,53.2156,113.6046,108.4765,251.6389,-2.0528e-05,-6.15e-06,0.0,0 STARLINK-5239,1 54183U 22141AC  24213.86674824 -.00000615  00000-0 -20528-4 0  9993,2 54183  53.2156 113.6046 0001493 108.4765 251.6389 15.08837957 97658,6917.887,95.438,540.784,538.719,0.0
